STARLINK-34361          
1 64450C 25130N   26098.73173611 -.00030861  00000+0 -10400-2 0   980
2 64450  53.1576 309.0261 0001117  95.6337 211.4402 15.30212739    10
STARLINK-34392          
1 64451C 25130P   26098.72687500 -.00025113  00000+0 -84635-3 0   983
2 64451  53.1603 309.2989 0001277  93.9628  58.3593 15.30206563    19
STARLINK-34367          
1 64452C 25130Q   26098.70604167 -.00018941  00000+0 -63826-3 0   980
2 64452  53.1589 308.9289 0001086  93.8526 182.1134 15.30206711    18
STARLINK-34221          
1 64453C 25130R   26098.70048611 -.00022809  00000+0 -76867-3 0   984
2 64453  53.1581 309.2088 0001210  94.0249  23.3572 15.30205846    16
STARLINK-34282          
1 64454C 25130S   26098.72062500 -.00030834  00000+0 -10390-2 0   985
2 64454  53.1603 311.5228 0001247  85.5746   0.2977 15.30212429    19
STARLINK-34295          
1 64455C 25130T   26098.67131944 -.00009162  00000+0 -30878-3 0   983
2 64455  53.1597 309.4661 0001240  96.1532 156.4912 15.30197306    12
STARLINK-34430          
1 64456C 25130U   26098.68659722 -.00008301  00000+0 -27926-3 0   988
2 64456  53.1600 308.9356 0001451  95.5982 113.9084 15.30255613    13
STARLINK-34445          
1 64457C 25130V   26098.69215278 -.00020757  00000+0 -69952-3 0   988
2 64457  53.1578 309.2311 0001172  96.3267 340.9464 15.30204516    18
STARLINK-34439          
1 64458C 25130W   26098.70881944 -.00015551  00000+0 -52380-3 0   983
2 64458  53.1595 308.8772 0001455  85.6618 222.9482 15.30218384    16
STARLINK-34421          
1 64459C 25130X   26098.67895833 -.00016079  00000+0 -54185-3 0   983
2 64459  53.1587 309.3365 0001219  95.5059 245.7754 15.30204003    17
STARLINK-34423          
1 64460C 25130Y   26098.73243056 -.00042352  00000+0 -14273-2 0   982
2 64460  53.1604 308.6966 0001327  90.0999  23.6668 15.30215758    17
STARLINK-34418          
1 64461C 25130Z   26098.75812500 -.00030617  00000+0 -10319-2 0   989
2 64461  53.1593 309.0708 0001272  91.0493 274.2336 15.30206960    14
STARLINK-34336          
1 64462C 25130AA  26098.76506944 -.00030962  00000+0 -10433-2 0   983
2 64462  53.1608 311.3839 0001118  87.7192 173.3720 15.30214767    10
STARLINK-34400          
1 64463C 25130AB  26098.67479167 -.00006917  00000+0 -23312-3 0   984
2 64463  53.1609 311.7997 0001618  90.6255  67.7285 15.30195947    19
STARLINK-34429          
1 64464C 25130AC  26098.70465278 -.00014509  00000+0 -48895-3 0   986
2 64464  53.1578 309.0427 0001032  93.2274 116.9283 15.30201744    11
STARLINK-34449          
1 64465C 25130AD  26098.66437500 -.00006684  00000+0 -22524-3 0   985
2 64465  53.1590 309.4209 0001232  95.2208 154.0536 15.30200561    19
STARLINK-34493          
1 64472C 25133A   26098.69909722  .00019896  00000+0  67055-3 0   984
2 64472  53.1612 337.6366 0001128  79.7117 142.3144 15.30182637    17
STARLINK-34492          
1 64473C 25133B   26098.68034722 -.00008002  00000+0 -27001-3 0   989
2 64473  53.1610 337.6884 0001468  93.7553  42.5091 15.30157380    17
STARLINK-34474          
1 64474C 25133C   26098.74979167  .00005212  00000+0  17537-3 0   989
2 64474  53.1611 337.3317 0001444  91.0365  85.2940 15.30241002    15
STARLINK-34523          
1 64475C 25133D   26098.74145833  .00001734  00000+0  58438-4 0   986
2 64475  53.1607 337.3007 0001348  90.9598  74.3491 15.30186377    19
STARLINK-34496          
1 64476C 25133E   26098.69215278  .00018545  00000+0  62516-3 0   981
2 64476  53.1595 337.4613 0001396  93.0983 195.3580 15.30174954    16
STARLINK-34375          
1 64477C 25133F   26098.72340278  .00008484  00000+0  28593-3 0   983
2 64477  53.1586 337.2475 0001240  91.1046  44.4864 15.30186768    13
STARLINK-34490          
1 64478C 25133G   26098.68729167  .00027383  00000+0  92288-3 0   988
2 64478  53.1578 337.2994 0001360  90.9905 263.7313 15.30178238    13
STARLINK-34528          
1 64479C 25133H   26098.68798611  .00026198  00000+0  88306-3 0   988
2 64479  53.1579 337.3312 0000988  91.7593 249.3457 15.30175278    17
STARLINK-34518          
1 64480C 25133J   26098.66645833  .00034890  00000+0  11759-2 0   980
2 64480  53.1573 337.3618 0001248  93.2584 164.0875 15.30175571    12
STARLINK-34526          
1 64481C 25133K   26098.75465278 -.00008035  00000+0 -27077-3 0   989
2 64481  53.1576 336.9174 0001223  94.8584 306.0275 15.30200152    14
STARLINK-34527          
1 64482C 25133L   26098.67548611  .00033622  00000+0  11324-2 0   989
2 64482  53.1590 337.1800 0001177  84.8581 291.9985 15.30196023    15
STARLINK-34420          
1 64483C 25133M   26098.70256944  .00018423  00000+0  62083-3 0   980
2 64483  53.1605 336.9843 0001164  90.8355 110.2358 15.30187257    15
STARLINK-34509          
1 64484C 25133N   26098.74215278  .00001824  00000+0  61486-4 0   984
2 64484  53.1611 337.4777 0001307  87.3091 348.7629 15.30186866    16
STARLINK-34409          
1 64485C 25133P   26098.73312500  .00005173  00000+0  17433-3 0   983
2 64485  53.1612 337.4963 0001314  76.4997 321.4470 15.30191517    18
STARLINK-34520          
1 64486C 25133Q   26098.67548611  .00030811  00000+0  10383-2 0   984
2 64486  53.1611 337.7290 0001295  92.7943   4.9046 15.30180524    12
STARLINK-34477          
1 64487C 25133R   26098.70812500  .00015813  00000+0  53269-3 0   986
2 64487  53.1612 337.5417 0001338  88.4343 206.6103 15.30199503    19
STARLINK-34217          
1 64488C 25133S   26098.75118056 -.00001029  00000+0 -34664-4 0   982
2 64488  53.1609 337.3073 0001357  82.8061 107.0077 15.30192870    12
STARLINK-34307          
1 64489C 25133T   26098.73659722  .00000759  00000+0  25572-4 0   986
2 64489  53.1607 337.3397 0001398  89.7573  37.1282 15.30186891    16
STARLINK-34505          
1 64490C 25133U   26098.69076389  .00021538  00000+0  72594-3 0   988
2 64490  53.1603 337.5183 0001279  95.1883 156.5254 15.30179318    13
STARLINK-34530          
1 64491C 25133V   26098.72409722  .00007121  00000+0  24002-3 0   987
2 64491  53.1600 337.3290 0001241  88.1485   4.7364 15.30184577    16
STARLINK-34522          
1 64492C 25133W   26098.74076389  .00001678  00000+0  56541-4 0   984
2 64492  53.1596 337.2175 0001319  89.2593 112.9435 15.30191024    16
STARLINK-34462          
1 64493C 25133X   26098.75812500 -.00005935  00000+0 -20003-3 0   984
2 64493  53.1588 337.1025 0001267 101.5623 213.7770 15.30195394    11
STARLINK-34226          
1 64494C 25133Y   26098.67965278  .00027236  00000+0  91763-3 0   984
2 64494  53.1581 337.4326 0000883 109.0474 151.1791 15.30189556    13
STARLINK-34364          
1 64495C 25133Z   26098.73034722  .00002403  00000+0  80978-4 0   989
2 64495  53.1593 335.0266 0001264  94.2484  94.1914 15.30189895    13
STARLINK-34268          
1 64496C 25133AA  26098.66993056  .01995700  00000+0  42058-1 0   982
2 64496  53.1600 337.1100 0001187  81.7770 311.2512 15.43671511    18
STARLINK-34363          
1 64497C 25133AB  26098.68520833  .00028038  00000+0  94486-3 0   988
2 64497  53.1576 337.3249 0001370  96.9439 234.6632 15.30181669    18
STARLINK-34427          
1 64498C 25133AC  26098.59770833  .00026934  00000+0  90799-3 0   982
2 64498  53.1574 337.6960 0001209  92.9602 133.8320 15.30170145    10
STARLINK-34280          
1 64594C 25137A   26098.73381944  .00058526  00000+0  19722-2 0   988
2 64594  53.1583 195.6781 0001232  78.3440 328.9556 15.30167476    15
STARLINK-34517          
1 64595C 25137B   26098.67062500  .00027654  00000+0  93200-3 0   988
2 64595  53.1570 196.1736 0001356  79.4547 234.8424 15.30179120    13
STARLINK-34510          
1 64596C 25137C   26098.70673611  .00030282  00000+0  10189-2 0   989
2 64596  53.1575 195.9499 0001209  72.8864 109.5547 15.30230713    18
STARLINK-34486          
1 64597C 25137D   26098.69423611  .00015812  00000+0  53370-3 0   983
2 64597  53.1573 196.2693 0001071  81.2574 258.4865 15.30136037    17
STARLINK-34463          
1 64598C 25137E   26098.68104167  .00064590  00000+0  21762-2 0   981
2 64598  53.1569 196.2488 0001181  77.4811 230.2574 15.30169643    12
STARLINK-34294          
1 64599C 25137F   26098.67826389  .00028650  00000+0  96558-3 0   981
2 64599  53.1574 196.0924 0001378  83.3753 296.2934 15.30178310    14
STARLINK-34504          
1 64600C 25137G   26098.76437500  .00055464  00000+0  18713-2 0   986
2 64600  53.1564 195.9246 0001047  88.4360 289.6113 15.30129903    13
STARLINK-34508          
1 64601C 25137H   26098.69770833  .00055384  00000+0  18666-2 0   986
2 64601  53.1584 195.7402 0001221  77.1065 183.5163 15.30164175    16
STARLINK-34435          
1 64602C 25137J   26098.74770833  .00058279  00000+0  19637-2 0   988
2 64602  53.1576 195.7333 0001050  80.9733 338.9012 15.30170452    19
STARLINK-34475          
1 64603C 25137K   26098.75743056  .00054555  00000+0  18386-2 0   980
2 64603  53.1586 195.6191 0001332  81.0965  67.2805 15.30165688    11
STARLINK-34488          
1 64604C 25137L   26098.68034722  .00069723  00000+0  23502-2 0   985
2 64604  53.1582 195.7865 0001213  88.2723  94.0622 15.30153319    19
STARLINK-34516          
1 64605C 25137M   26098.75673611  .00058951  00000+0  19861-2 0   984
2 64605  53.1567 195.3032 0001223  75.7218 231.6793 15.30174182    15
STARLINK-34073          
1 64606C 25137N   26098.74215278  .00060405  00000+0  20357-2 0   984
2 64606  53.1576 195.4493 0001163  84.6593 101.6593 15.30163820    17
STARLINK-34532          
1 64607C 25137P   26098.69701389  .00022552  00000+0  76002-3 0   982
2 64607  53.1593 206.0114 0001273  86.6627   1.9424 15.30182805    17
STARLINK-34519          
1 64608C 25137Q   26098.67548611  .00049867  00000+0  16810-2 0   986
2 64608  53.1584 195.9112 0001088  77.2972  25.9543 15.30161667    16
STARLINK-34513          
1 64609C 25137R   26098.71298611  .00054916  00000+0  18507-2 0   980
2 64609  53.1585 195.7022 0001285  78.5610 248.8245 15.30166373    12
